[{"OBJECT_NAME":"KUIPER-00276","OBJECT_ID":"2026-030AG","EPOCH":"2026-03-06T13:20:35.661120","MEAN_MOTION":15.30922911,"ECCENTRICITY":0.00186466,"INCLINATION":51.881,"RA_OF_ASC_NODE":234.8028,"ARG_OF_PERICENTER":58.3109,"MEAN_ANOMALY":301.9691,"EPHEMERIS_TYPE":0,"CLASSIFICATION_TYPE":"U","NORAD_CAT_ID":67794,"ELEMENT_SET_NO":999,"REV_AT_EPOCH":460,"BSTAR":-0.006191235,"MEAN_MOTION_DOT":-0.00184658,"MEAN_MOTION_DDOT":0},{"OBJECT_NAME":"KUIPER-00279","OBJECT_ID":"2026-030AH","EPOCH":"2026-03-06T20:08:08.576160","MEAN_MOTION":15.35288509,"ECCENTRICITY":0.0006654,"INCLINATION":51.8802,"RA_OF_ASC_NODE":232.9576,"ARG_OF_PERICENTER":39.6256,"MEAN_ANOMALY":320.5215,"EPHEMERIS_TYPE":0,"CLASSIFICATION_TYPE":"U","NORAD_CAT_ID":67795,"ELEMENT_SET_NO":999,"REV_AT_EPOCH":465,"BSTAR":0.0011048,"MEAN_MOTION_DOT":0.00038271,"MEAN_MOTION_DDOT":0}]
